C/2019 M4 (TESS),h,09/09.6257/2019,65.6908,52.6423,260.3417,1.000409,9.191041,2000,5.0,4.0
# From MPEC 2023-C45
C/2019 N1 (ATLAS),e,82.5298,13.5134,193.3444,970.8159,0.0000326,0.99824570,0.0000,11/30.5239/2020,2000,g  7.5,4.0
# From MPEC 2023-CD8
A/2019 N2,e,89.3214,276.2235,347.0690,1137,0.0000257,0.99829323,0.0000,08/22.4390/2019,2000,g 12.5,2.0
# From MPEC 2022-A21
C/2019 NJ3 (Lemmon),h,10/22.2595/2020,99.3362,142.4923,246.8724,1.001445,4.362925,2000,9.0,4.0
# From MPC184408
C/2019 O2 (PANSTARRS),e,93.2999,48.2628,129.5759,58.74289,0.0021891,0.83519745,1.7708,06/23.0/2025,2000,g  5.0,4.0
# From MPC182878
C/2019 O3 (Palomar),h,03/08.4387/2021,89.7964,300.4760,60.1010,1.002745,8.820750,2000,3.5,4.0
# From MPEC 2021-P47
A/2019 O4,e,115.0055,354.9265,61.8250,33.23050,0.0051452,0.89038998,10.0787,06/23.0/2025,2000,g 15.5,2.0
# From MPEC 2024-EF7
C/2019 Q1 (Lemmon),h,07/22.1751/2020,155.7215,42.4668,56.2550,1.002386,5.002824,2000,8.5,4.0
# From MPC117072
A/2019 Q2,e,158.9724,188.1231,176.5086,58.78398,0.0021868,0.97855039,0.0000,07/23.6386/2019,2000,g 18.0,2.0
# From MPC117072
P/2019 S2 (PANSTARRS),e,10.4637,93.1804,216.9344,4.747366,0.0952851,0.20467789,220.9414,06/23.0/2025,2000,g 13.5,4.0
# From MPEC 2022-CN4
P/2019 S3 (PANSTARRS),e,8.6940,150.1409,213.0953,3.414455,0.1562147,0.47075342,332.0116,06/23.0/2025,2000,g 18.3,4.0
# From MPEC 2021-S45
C/2019 S4 (Lemmon),e,92.0960,63.1559,71.3707,248.7415,0.0002512,0.98617374,0.0000,04/09.3682/2020,2000,g 11.0,4.0
# From MPEC 2023-N01
A/2019 T1,e,120.8216,6.9303,90.9836,38.75770,0.0040848,0.88970341,6.6175,06/23.0/2025,2000,g 13.0,2.0
# From MPEC 2023-R20
C/2019 T2 (Lemmon),e,111.3732,155.6548,239.3876,3459,0.0000048,0.99923588,0.0000,04/22.5223/2021,2000,g  9.0,4.0
# From MPEC 2023-UR6
C/2019 T3 (ATLAS),e,121.8738,139.5432,112.4881,4560,0.0000032,0.99869433,0.0000,03/04.7130/2021,2000,g  6.8,4.0
# From MPC182878
C/2019 T4 (ATLAS),e,53.6246,199.9026,351.1090,880.2531,0.0000377,0.99518593,0.0000,06/08.6629/2022,2000,g  5.0,4.0
# From MPEC 2021-P47
P/2019 T5 (ATLAS),e,33.4932,247.6127,189.6234,8.007593,0.0434962,0.80977911,93.5417,06/23.0/2025,2000,g 15.0,4.0
# From MPEC 2021-P47
P/2019 T6 (PANSTARRS),e,18.6987,71.2475,329.0585,5.442814,0.0776191,0.62247026,159.3602,06/23.0/2025,2000,g 15.5,4.0
# From MPC118096
P/2019 U4 (PANSTARRS),e,11.6954,200.0018,181.0816,3.518858,0.1493143,0.47575108,313.7839,06/23.0/2025,2000,g 19.0,4.0
# From MPC184408
C/2019 U5 (PANSTARRS),h,03/29.4535/2023,113.5125,2.6133,181.4503,1.000196,3.624241,2000,4.5,4.0
# From MPEC 2022-H04
C/2019 U6 (Lemmon),e,60.9856,235.7514,329.4314,303.9755,0.0001860,0.99701750,0.0000,06/18.3162/2020,2000,g 10.0,4.0
# From MPEC 2022-N37
C/2019 V1 (Borisov),e,61.9482,83.1481,51.1927,2608,0.0000074,0.99881426,0.0000,07/17.5530/2020,2000,g 11.0,4.0
# From MPEC 2022-L66
P/2019 V2 (Groeller),e,11.8069,189.1386,335.6328,7.494822,0.0480355,0.33186401,82.1299,06/23.0/2025,2000,g 10.0,4.0
# From MPEC 2023-A50
P/2019 W1 (PANSTARRS),e,23.4668,35.3620,18.8878,4.548551,0.1016002,0.26719644,226.9766,06/23.0/2025,2000,g 12.9,4.0
# From MPEC 2021-P47
P/2019 X1 (Pruyne),e,10.2458,43.6771,36.9870,6.179402,0.0641630,0.30383426,138.6127,06/23.0/2025,2000,g 10.4,4.0
# From MPEC 2020-C98
P/2019 X2 (Pan-STARRS),e,15.8947,250.8313,213.5144,3.634117,0.1422675,0.50046971,287.4024,06/23.0/2025,2000,g 18.0,4.0
# From MPC119999
C/2019 Y1 (ATLAS),e,73.2815,31.4788,57.9150,88.16942,0.0011905,0.99062700,0.0000,03/17.1833/2020,2000,g 13.7,4.0
# From MPEC 2024-A43
C/2019 Y4 (ATLAS),e,44.9377,120.7900,177.4105,330.9211,0.0001637,0.99922271,0.0000,05/29.6768/2020,2000,g 11.8,6.0
# From MPEC 2020-L06
C/2019 Y4-A (ATLAS),h,05/29.7300/2020,45.3725,121.1577,177.2426,1.001365,0.255377,2000,11.6,6.0
# From MPEC 2025-CE3
C/2019 Y4-B (ATLAS),e,45.0191,120.8532,177.3696,1364,0.0000196,0.99981171,0.0000,05/29.6853/2020,2000,g 12.1,6.0
# From MPEC 2020-L06
C/2019 Y4-C (ATLAS),h,05/29.6838/2020,45.1563,120.8850,177.2754,1.002093,0.256449,2000,12.7,6.0
# From MPEC 2020-L06
C/2019 Y4-D (ATLAS),e,45.2092,121.2467,177.4184,67.31871,0.0017844,0.99620059,0.0000,05/29.7708/2020,2000,g 12.5,6.0
# From MPEC 2023-A50
C/2019 Y5 (PANSTARRS),e,82.7739,51.7662,303.6637,687.6134,0.0000547,0.99282488,0.0000,08/16.5904/2019,2000,g 11.0,4.0
# From MPEC 2023-A50
A/2020 A1,e,149.0316,119.0653,302.4017,25.46508,0.0076698,0.93436018,15.5833,06/23.0/2025,2000,g 18.0,2.0
# From MPEC 2022-YN2
C/2020 A2 (Iwamoto),e,120.5064,286.1900,68.0146,968.4860,0.0000327,0.99899307,0.0000,01/07.1469/2020,2000,g 13.5,4.0
# From MPEC 2023-A50
C/2020 A3 (ATLAS),e,146.6215,120.7987,268.2372,5173,0.0000026,0.99888794,0.0000,06/26.9152/2019,2000,g  8.0,4.0
# From MPEC 2022-P91
P/2020 A4 (PANSTARRS-Lemmon),e,25.0025,312.2824,144.9021,8.202736,0.0419533,0.65447042,85.4821,06/23.0/2025,2000,g 15.0,4.0
# From MPEC 2020-N08
A/2020 B1,e,18.5402,309.8051,154.8760,52.07608,0.0026227,0.96660307,5.2568,06/23.0/2025,2000,g 21.0,2.0
# From MPEC 2020-HN5
C/2020 B2 (Lemmon),e,55.7549,354.1799,143.6269,67.88779,0.0017620,0.95940254,3.4778,06/23.0/2025,2000,g 10.0,4.0
# From MPEC 2022-N37
C/2020 B3 (Rankin),e,20.7068,185.7483,324.9287,1048,0.0000291,0.99682412,0.0000,10/20.7522/2019,2000,g 13.0,4.0
# From MPEC 2023-KD6
P/2020 B4 (Sheppard),e,11.6031,185.9495,342.0482,7.973241,0.0437776,0.19287622,57.4240,06/23.0/2025,2000,g 10.5,4.0
# From MPC184409
C/2020 F2 (ATLAS),h,07/12.5473/2022,163.5897,250.3009,48.2383,1.002643,8.813544,2000,4.5,4.0
# From MPEC 2021-O56
C/2020 F3 (NEOWISE),e,129.1160,61.0779,37.3500,401.7489,0.0001224,0.99926936,0.0000,07/04.9149/2020,2000,g  7.5,5.2
# From MPEC 2024-UQ8
C/2020 F5 (MASTER),e,52.2316,350.5404,310.6188,164.3733,0.0004677,0.97368069,0.0000,03/16.2046/2021,2000,g  6.5,3.2
# From MPEC 2020-L06
C/2020 F6 (PANSTARRS),e,174.5842,207.8421,344.3372,342.8976,0.0001552,0.98979811,0.0000,04/10.3718/2020,2000,g 14.5,2.8
# From MPEC 2024-A43
C/2020 F7 (Lemmon),e,93.9817,321.8228,227.9823,570.2134,0.0000724,0.99064410,0.0000,11/13.8608/2021,2000,g  7.0,4.0
# From MPEC 2023-J29
C/2020 F8 (SWAN),h,05/25.8560/2020,110.5563,259.8026,68.1098,1.000067,0.432637,2000,10.0,4.0
# From MPEC 2020-L06
P/2020 G1 (Pimentel),e,18.5073,240.0990,207.6471,3.606564,0.1439010,0.86081300,276.4984,06/23.0/2025,2000,g 17.0,4.0
# From MPEC 2022-YB4
C/2020 H2 (Pruyne),e,124.7799,277.6716,26.5858,177.2775,0.0004176,0.99532646,0.0000,04/26.9123/2020,2000,g 14.0,3.2
# From MPEC 2020-HM1
C/2020 H3 (Wierzchos),p,06/05.7162/2020,62.5292,30.4456,2.300288,270.6227,2000,13.5,4.0
# From MPEC 2020-L06
C/2020 H4 (Leonard),e,84.4946,307.4588,117.5754,47.84693,0.0029780,0.98061728,0.0000,08/29.2402/2020,2000,g 15.0,3.2
# From MPC184409
C/2020 H5 (Robinson),e,70.2296,210.6150,326.2660,5926,0.0000022,0.99842475,0.0000,12/09.9607/2020,2000,g  5.0,4.0
# From MPEC 2024-JU4
C/2020 H6 (ATLAS),e,79.9884,213.6928,20.1943,2003,0.0000110,0.99765526,0.0000,09/29.5924/2021,2000,g  8.0,3.2
# From MPEC 2020-KB7
C/2020 H7 (Lemmon),e,135.9235,323.5194,82.6780,1405,0.0000187,0.99685380,0.0000,06/02.9510/2020,2000,g 11.0,4.0
# From MPEC 2021-N06
C/2020 H8 (PANSTARRS),e,99.7031,68.4388,128.8215,590.8020,0.0000686,0.99210635,0.0000,06/04.7859/2020,2000,g 10.5,4.0
# From MPEC 2022-ED3
A/2020 H9,e,137.8738,213.1212,312.6233,342.0818,0.0001558,0.99251020,0.0000,12/21.7911/2019,2000,g 18.0,2.0
# From MPEC 2023-HN7
C/2020 H11 (PANSTARRS-Lemmon),e,151.3738,303.0570,91.3673,36397,0.0000001,0.99979061,0.0000,09/12.5949/2020,2000,g  8.5,4.0
# From MPEC 2023-KD6
C/2020 J1 (SONEAR),e,142.3072,226.5867,341.5823,10512,0.0000009,0.99968178,0.0000,04/18.0530/2021,2000,g  8.5,3.2
# From MPC184409
C/2020 K1 (PANSTARRS),e,89.6714,94.3663,213.9708,2481,0.0000080,0.99876078,0.0000,05/08.7661/2023,2000,g  5.5,4.0
# From MPEC 2021-N06
C/2020 K2 (PANSTARRS),h,08/04.4690/2020,90.9892,288.4334,67.3110,1.001014,8.880285,2000,10.8,4.0
# From MPEC 2020-KF9
C/2020 K3 (Leonard),p,06/01.0032/2020,129.0152,64.4924,1.583069,28.3546,2000,14.5,4.0
# From MPEC 2020-L06
C/2020 K4 (PANSTARRS),e,125.5850,264.2742,308.7862,23.92629,0.0084215,0.92710191,16.3043,06/23.0/2025,2000,g 16.5,4.0
# From MPEC 2021-R75
C/2020 K5 (PANSTARRS),h,06/04.2758/2021,67.0688,86.1419,249.6412,1.000813,1.540624,2000,11.0,4.0
# From MPEC 2023-N01
C/2020 K6 (Rankin),h,09/14.7625/2021,103.6309,291.5989,44.2794,1.002160,5.866158,2000,8.0,4.0
# From MPEC 2023-A50
C/2020 K7 (PANSTARRS),e,32.0444,286.1318,358.0839,94.68490,0.0010698,0.93252864,2.2119,06/23.0/2025,2000,g  8.0,4.0
# From MPEC 2021-P47
C/2020 K8 (Catalina-ATLAS),h,09/15.6943/2020,31.3826,181.3057,260.1567,1.000317,0.471493,2000,15.0,3.2
# From MPEC 2021-BE3
P/2020 K9 (Lemmon-PANSTARRS),e,23.1906,166.3112,197.0906,4.207297,0.1142087,0.32014772,181.9118,06/23.0/2025,2000,g 12.5,4.0
# From MPEC 2023-C45
P/2020 M1 (PANSTARRS),e,8.5345,142.6147,72.4948,5.311930,0.0805055,0.47350388,161.7169,06/23.0/2025,2000,g 14.5,4.0
# From MPEC 2022-H30
C/2020 M3 (ATLAS),e,23.4704,71.1760,328.6675,27.30324,0.0069085,0.95330107,11.7530,06/23.0/2025,2000,g 14.5,4.0
# From MPEC 2023-N01
A/2020 M4,e,160.1028,348.6147,104.4826,26648,0.0000002,0.99977706,0.0000,11/22.8099/2020,2000,g 14.5,2.0
# From MPEC 2024-NE4
P/2020 MK4 (PANSTARRS),e,6.7815,0.6650,93.5675,6.224003,0.0634745,0.01505947,317.8119,06/23.0/2025,2000,g  8.0,4.0
# From MPEC 2023-FK0
C/2020 M5 (ATLAS),h,08/19.7553/2021,93.1743,352.0207,126.2456,1.000124,2.999893,2000,9.0,4.0
# From MPEC 2022-GA9
C/2020 N1 (PANSTARRS),h,03/13.1314/2021,29.7655,279.8573,186.8344,1.000857,1.317577,2000,12.5,4.0
# From MPEC 2021-P47
C/2020 N2 (ATLAS),e,161.0387,257.1796,331.2046,101.3902,0.0009654,0.98240440,0.0000,08/24.3146/2020,2000,g 16.0,3.2
# From MPEC 2024-JU4
C/2020 O2 (Amaral),e,71.7623,256.7914,10.1762,13132,0.0000007,0.99963017,0.0000,08/27.2985/2021,2000,g  8.0,3.2
# From MPEC 2023-C45
P/2020 O3 (PANSTARRS),e,8.4445,266.8182,81.2062,4.646188,0.0984145,0.10241328,158.4422,06/23.0/2025,2000,g 12.0,4.0
# From MPEC 2021-BE3
C/2020 P1 (NEOWISE),h,10/21.1997/2020,45.1137,53.4874,8.9321,1.000436,0.341768,2000,14.0,3.2
